#dP2021  5 23  0  0  0.00000000      97 __u+U IGS14 FIT  IAC
## 2159      0.00000000   900.00000000 59357 0.0000000000000
+  123   C01C02C03C04C05C06C07C08C09C10C11C12C13C14C16C19C20
+        C21C22C23C24C25C26C27C28C29C30C32C33C34C35C36C37C38
+        C39C40C41C42C43C44C45C46C60E01E02E03E04E05E07E08E09
+        E11E12E13E14E15E18E19E21E24E25E26E27E30E31E33E36G01
+        G02G03G04G05G06G07G08G09G10G12G13G14G15G16G17G18G19
+        G20G21G22G23G24G25G26G27G28G29G30G31G32J01J02J03J07
+        R01R02R03R04R05R07R08R09R11R12R13R14R15R16R17R18R19
+        R20R21R22R24  0  0  0  0  0  0  0  0  0  0  0  0  0
++         0 13 14 13 13  9  9  9  8  8  8  8  9  8  9  7  7
++         7  7  7  7  7  7  7  7  7  7  7  7  7  7  7  7 10
++         8  8  7  8  8  8  7  7 16  4  4  4  4  4  4  4  4
++         4  4  4  5  4  4  4  4  4  4  4  4  4  4  4  5  4
++         3  3  3  3  3  3  3  3  3  3  3  3  3  3  3  3  4
++         3  3  4  3  3  3  3  3  4  3  3  3  4  8  8  8 13
++         7  6  5  6  6  5  5  6  7  5  7  5  5  7  6  6  7
++         7  5  7  5  0  0  0  0  0  0  0  0  0  0  0  0  0
%c M  cc GPS ccc cccc cccc cccc cccc ccccc ccccc ccccc ccccc
%c cc cc ccc ccc cccc cccc cccc cccc ccccc ccccc ccccc ccccc
%f  1.2500000  1.025000000  0.00000000000  0.000000000000000
%f  0.0000000  0.000000000  0.00000000000  0.000000000000000
%i    0    0    0    0      0      0      0      0         0
%i    0    0    0    0      0      0      0      0         0
/* INFORMATION & ANALYSIS CENTER (IAC)            FINAL DATA
/* S/V CLOCKS ARE ALIGNED TO GNSS TIME                      
/* G:C1WC2W R:C1PC2P E:C1XC5X C:C2IC6I J:C1CC2S             
/* PCV:IGS14_2148 OL/AL:FES2004  NONE     YN ORB:CoN CLK:CoN
*  2021 05 23 21 45  0.00000000
PC01      0.000000      0.000000      0.000000 999999.999999
PC02   4447.445971  41923.959378   -641.150827    653.907066
PC03 -14734.641832  39516.375696  -1147.893121   -271.274952
PC04 -39622.095875  14446.354092   -344.999488 999999.999999
PC05  21922.581470  36039.865375   -372.760013   -123.723845
PC06 -24227.786608  28650.988949  19216.268708    418.874994
PC07 -12159.630442  36648.607156  17802.477883    149.621124
PC08  -9764.680591  18807.018230 -36346.591950   -890.921040
PC09 -10112.905260  28358.685791  29650.756510    501.799953
PC10   -944.334348  42154.588952   4825.302663    -38.864106
PC11 -24300.792925   -173.929503  13806.415593    358.090612
PC12  -9969.453297 -12285.332655  23016.537721    871.771697
PC13   3503.832992  25874.591796 -32942.848405    272.298816
PC14 -15200.357375  -5674.951571 -22668.563274    812.280596
PC16 -21899.639264  29001.332476  21324.267889   -855.059700
PC19  16084.073284  -5746.379767  22095.135795    845.865085
PC20  12424.054077  14547.760045  20349.284779   -904.481717
PC21  -1071.204419 -27146.053910  -6293.259940   -939.002189
PC22  10566.138940 -23329.259321  11051.314133   -954.231468
PC23  -9810.263051  12932.156296  22705.131297   -914.815478
PC24 -21941.075310 -17256.627761   -454.122107   -862.475837
PC25 -22516.319909  -1953.925768  16377.409057   -912.439160
PC26  -9850.000038 -20954.095935 -15608.058364    902.876060
PC27   -218.558017  16725.569887 -22356.877366    536.533304
PC28 -19007.358293  16561.986131 -11971.533110    -70.902554
PC29  26286.123390  -7671.452717  -5404.473286    396.312987
PC30  18455.246517   6779.506640 -19821.877722    468.074067
PC32   1310.154032  27158.847986   6335.134322   -930.410824
PC33 -16066.363933   5805.493024 -22058.690376   -937.170881
PC34 -18995.827881  -6333.971378  19412.688981   -666.740349
PC35  18708.411545 -17148.928363  11636.120412   -266.955546
PC36  22591.572062   2806.792732 -16115.721658   -726.448345
PC37   8477.177044  21050.256082  16249.310429   -887.203929
PC38  -5438.248006  23588.967451 -34482.757647    150.659877
PC39 -18067.173935  30475.783281  22755.944274     31.288413
PC40  -7305.556681  40658.891531   8819.097008    163.894771
PC41 -10614.504625  23215.888972 -11220.655748   -944.563735
PC42 -12129.450909 -15251.912850 -19918.926530   -914.169793
PC43 -26312.457621   7167.140569   5846.090466   -743.743739
PC44   -104.997164 -16911.503720  22191.260115    203.007058
PC45   9583.136345 -12946.811543 -22782.896745    448.060398
PC46  22354.152523  16667.517972   -511.065846    257.341889
PC60   7256.530542  41531.559357  -1353.113555 999999.999999
PE01  19334.933032   7792.779243 -21013.082936  -1114.065404
PE02 -19322.827991  -7675.454623  21071.121631    221.127699
PE03 -20570.224442   3715.249212 -20958.369825   -434.143089
PE04  19975.565393 -20826.965147   6591.079220   -777.217805
PE05  -9086.817038 -15879.845768 -23258.947122   -278.627995
PE07  -7552.253204  25999.764268  11992.438817   -541.250476
PE08 -19715.028016  21174.083253  -6287.773693   5997.403891
PE09   7349.414419 -25950.060210 -12166.432134   5657.834414
PE11   1571.630001 -16112.517097  24770.094382   5943.251300
PE12  22411.311423  -9459.667926  16877.539139   5195.906107
PE13  -1988.085555  16005.851084 -24819.462941    416.797662
PE14  -5102.973073 -14667.096534  17484.966420  -1441.295844
PE15 -22322.966313   9509.417832 -16945.234079    812.689232
PE18   6893.288528  20475.374728 -24361.804075  -1577.922648
PE19  19705.491908  -1410.102618  22053.925624    284.317562
PE21  16273.861488  23831.485030  -6588.537914   -666.589671
PE24  -2848.488603 -26516.936980 -12876.772712   -916.096614
PE25 -16187.920573 -23943.076965   6402.031882   -534.731032
PE26  20117.089577  12963.868984 -17420.981934   1776.362205
PE27   3622.243891  26720.171555  12205.052173    -38.790007
PE30 -11775.599994  12923.605742  23873.400853   2921.524935
PE31  11058.353070 -13886.869267 -23680.393548   -481.465890
PE33  29481.838506   2571.925181   -885.670052   -468.928701
PE36 -19459.761955 -13067.750116  18067.752422   -211.142159
PG01  19311.282192  14025.468335 -12277.762874    680.388159
PG02   4552.208451 -14838.295073  22211.026104   -606.670930
PG03  12616.107969  21129.538289  10050.988029   -172.122170
PG04  10411.891014  11123.390047  21765.435560   -197.420102
PG05  -4738.805990 -25700.004990   4012.025320    -42.818016
PG06  16790.991932  -8361.141720  18888.262484     18.803508
PG07  25889.021860   7007.124655   -502.550088    159.112774
PG08   1791.994678  17597.859980 -19725.219405    -22.339254
PG09  18549.591986    334.302510  18958.154788   -347.238804
PG10 -13386.125552   7366.790771 -21582.206039   -127.939618
PG12  -9987.941388 -23181.257194   8241.087912    -45.144542
PG13   7951.570246 -19741.191790 -15936.042268    135.760719
PG14  14035.686530  -6802.790592 -21505.507524     81.519751
PG15  -4628.663883 -17620.271899 -19578.996818   -147.348965
PG16  -1310.939572  24995.422630   7914.301545   -329.915061
PG17  22010.927556 -12635.226376  -7403.097247    447.101770
PG18 -25820.009938  -4466.427852  -4564.682997    349.550884
PG19  20564.478360 -16691.280317    387.144358      3.936922
PG20 -11397.904215 -24098.292391  -1524.812175    521.887463
PG21  13460.033590  14846.182984 -16964.083199    120.191281
PG22   9512.095309  24909.242718    408.580685   -606.817648
PG23 -16224.714382  -5086.971301 -20436.380428    104.076895
PG24 -15464.744176 -15109.687927 -15928.270208     95.079724
PG25 -15663.371692 -12912.854879  17003.198942    142.716968
PG26  -6324.962580  19799.479473  16319.766657     89.176344
PG27  -8949.830273  21228.322889 -13061.181284   -135.149915
PG28  11232.586210 -13485.083113 -19446.138154    566.506780
PG29 -17952.158315  -1729.806196  19464.178507   -352.106327
PG30  23186.308225  -2789.023825 -12807.633303   -429.921410
PG31 -14690.335259  10099.670444  19746.438277   -118.982633
PG32 -20920.329703  15089.270774  -5829.257287     20.592599
PJ01 -24278.371825  31051.109600 -10416.337853   -383.544694
PJ02 -24485.703823  23566.972762  29943.232540     -0.003781
PJ03 -35273.973416  20541.511326  -5811.222311     -6.182770
PJ07 -25396.887870  33657.524469     -0.716700     -0.011691
PR01 -10373.293883  -3971.955856 -22955.159346     79.877315
PR02 -12617.017904  16833.820325 -14336.982194    479.745208
PR03  -6607.682921  24494.232438   2439.148789     36.473847
PR04   2840.094349  18221.084801  17654.145253     88.104235
PR05  10776.820970   1839.235324  23063.056277     72.292231
PR07   6391.344372 -24535.026602  -2955.126807    -42.438882
PR08  -2915.710196 -18236.949347 -17543.391804    -59.146051
PR09  11003.859356  -4485.531829 -22561.869740     -5.647955
PR11 -15602.977454 -19663.987014  -4485.070078     -6.196719
PR12 -18769.250774 -11076.057357  13296.172141    231.337937
PR13 -11219.853096   3785.475757  22576.688802    -55.182793
PR14   3424.520685  17030.148511  18697.552653     64.580860
PR15  15527.167930  19839.931485   4022.493376    103.662290
PR16  18846.763455   9694.960184 -14119.511980    -15.442689
PR17  -9065.595425  11605.972605 -20834.650089    426.576310
PR18   9230.849940   8302.414125 -22283.821719     77.559315
PR19  22111.477995   1679.432016 -12611.984462   -144.879747
PR20  23351.144332  -7428.514217   7170.971381    -49.624441
PR21   7799.566897 -11468.458183  21396.718803   -211.164389
PR22 -10106.043247  -7969.955861  21982.700199   -114.159080
PR24 -22870.286355   8195.882144  -7780.251797     43.791947
EOF
